[{"OBJECT_NAME":"STARLINK-33697","OBJECT_ID":"2025-070H","EPOCH":"2026-03-09T13:03:11.538720","MEAN_MOTION":15.27589098,"ECCENTRICITY":0.00010037,"INCLINATION":42.9966,"RA_OF_ASC_NODE":260.6804,"ARG_OF_PERICENTER":298.8578,"MEAN_ANOMALY":61.2173,"EPHEMERIS_TYPE":0,"CLASSIFICATION_TYPE":"U","NORAD_CAT_ID":63467,"ELEMENT_SET_NO":999,"REV_AT_EPOCH":5295,"BSTAR":0.00083553423,"MEAN_MOTION_DOT":0.00022808,"MEAN_MOTION_DDOT":0},{"OBJECT_NAME":"GEOSCAN 2 (RS92S2)","OBJECT_ID":"2025-155Q","EPOCH":"2026-03-09T23:01:48.939744","MEAN_MOTION":15.28709337,"ECCENTRICITY":0.00085277,"INCLINATION":97.4463,"RA_OF_ASC_NODE":37.5259,"ARG_OF_PERICENTER":140.9505,"MEAN_ANOMALY":219.2352,"EPHEMERIS_TYPE":0,"CLASSIFICATION_TYPE":"U","NORAD_CAT_ID":64890,"ELEMENT_SET_NO":999,"REV_AT_EPOCH":6561,"BSTAR":0.00051551761,"MEAN_MOTION_DOT":0.00014341,"MEAN_MOTION_DDOT":0}]
